[{"OBJECT_NAME":"DONGPO 09","OBJECT_ID":"2022-167D","EPOCH":"2026-03-09T22:41:56.215392","MEAN_MOTION":15.33957076,"ECCENTRICITY":0.00036388,"INCLINATION":97.6808,"RA_OF_ASC_NODE":235.7428,"ARG_OF_PERICENTER":115.2371,"MEAN_ANOMALY":244.9249,"EPHEMERIS_TYPE":0,"CLASSIFICATION_TYPE":"U","NORAD_CAT_ID":54685,"ELEMENT_SET_NO":999,"REV_AT_EPOCH":18022,"BSTAR":0.00050563217,"MEAN_MOTION_DOT":0.00016547,"MEAN_MOTION_DDOT":0},{"OBJECT_NAME":"STARLINK-30294","OBJECT_ID":"2023-122V","EPOCH":"2026-03-09T22:00:01.999584","MEAN_MOTION":15.18636103,"ECCENTRICITY":0.0001234,"INCLINATION":43.0013,"RA_OF_ASC_NODE":79.6863,"ARG_OF_PERICENTER":285.8552,"MEAN_ANOMALY":215.8624,"EPHEMERIS_TYPE":0,"CLASSIFICATION_TYPE":"U","NORAD_CAT_ID":57651,"ELEMENT_SET_NO":999,"REV_AT_EPOCH":567,"BSTAR":0.056254533,"MEAN_MOTION_DOT":0.01284505,"MEAN_MOTION_DDOT":0}]
